EUTELSAT 7A             
1 28187U 04008A   26005.48319591  .00000099  00000+0  00000+0 0  9997
2 28187   5.4183  73.9755 0001539 247.0764 178.7523  1.00271829 79721
EUTELSAT 174A           
1 28924U 05052A   26005.57282075  .00000006  00000+0  00000+0 0  9990
2 28924   3.8079  78.5675 0006274 209.9120 196.8736  1.00272607 50701
EUTELSAT HOTBIRD 13B    
1 29270U 06032A   26005.60735931  .00000154  00000+0  00000+0 0  9996
2 29270   1.2428  84.1416 0003553 207.4613  65.3377  1.00274027 45678
EUTELSAT HOTBIRD 13C    
1 33459U 08065A   26005.51947875 -.00000285  00000+0  00000+0 0  9996
2 33459   2.5332  81.1520 0003669 207.6231 313.0144  1.00268607 45716
EUTELSAT 36B            
1 36101U 09065A   26005.61082600  .00000112  00000+0  00000+0 0  9999
2 36101   0.0848  60.3737 0005732 224.0945  91.1178  1.00269855 59076
EUTELSAT KA-SAT 9A      
1 37258U 10069A   26004.60392637  .00000062  00000+0  00000+0 0  9995
2 37258   0.0508 338.3378 0001630 198.7962 153.4898  1.00272711 42361
EUTELSAT 7 WEST A       
1 37816U 11051A   26005.59921259 -.00000061  00000+0  00000+0 0  9994
2 37816   0.0656  18.9459 0004838 221.4122  73.2316  1.00271689 52246
EUTELSAT 16A            
1 37836U 11057A   26005.60389262  .00000103  00000+0  00000+0 0  9992
2 37836   0.0580  17.4446 0005516 268.9220  52.2151  1.00270520  5697
